O3B FM17                
1 44114U 19020C   26061.57758382 -.00000029  00000+0  00000+0 0  9996
2 44114   0.0396 339.6165 0002694 356.2567  24.1068  5.00115420126190
O3B FM18                
1 44115U 19020D   26061.52387598 -.00000029  00000+0  00000+0 0  9999
2 44115   0.0518   0.0725 0002750 340.6726  19.2372  5.00115210126319
SES-17                  
1 49332U 21095A   26061.57485928 -.00000289  00000+0  00000+0 0  9999
2 49332   0.0237  63.9843 0001054 272.0224 324.1771  1.00270170 16782
SES-22                  
1 52933U 22071A   26061.70324780  .00000087  00000+0  00000+0 0  9993
2 52933   0.0223 246.7183 0001038  86.1093 301.8132  1.00274316  6458
SES-20                  
1 53960U 22123A   26061.63899292 -.00000118  00000+0  00000+0 0  9995
2 53960   0.0126 108.6101 0001362 312.9850 225.7324  1.00271527 12464
SES-21                  
1 53961U 22123B   26061.13429168  .00000051  00000+0  00000+0 0  9997
2 53961   0.0269  62.3642 0001272 278.1394  96.7563  1.00274061  6139
O3B MPOWER F1           
1 54755U 22174A   26058.53300325 -.00000026  00000+0  00000+0 0  9991
2 54755   0.0641 351.4493 0005158   3.4086 238.9684  5.00103025 59873
O3B MPOWER F2           
1 54756U 22174B   26048.35866194 -.00000015  00000+0  00000+0 0  9990
2 54756   0.0642 348.2682 0001560 220.5550 151.1634  5.00731386 59441
SES-18                  
1 55970U 23038A   26061.63899292 -.00000118  00000+0  00000+0 0  9994
2 55970   0.0640 273.3711 0002550  31.7881 342.1740  1.00272102 11033
SES-19                  
1 55971U 23038B   26061.70402780  .00000071  00000+0  00000+0 0  9992
2 55971   0.0568 286.3319 0001761  47.6227 305.0547  1.00271639 11019
O3B MPOWER F4           
1 56367U 23059A   26048.24074746 -.00000015  00000+0  00000+0 0  9995
2 56367   0.0593   7.9241 0006460 334.3658  17.6828  5.00119607 52601
O3B MPOWER F5           
1 58346U 23175A   26061.56682682 -.00000029  00000+0  00000+0 0  9992
2 58346   0.0396   2.2415 0004134 343.7978  13.9419  5.00115686 44099
ASTRA 1P (SES-24)       
1 60086U 24115A   26061.74937681  .00000103  00000+0  00000+0 0  9995
2 60086   0.0587 335.9989 0005190 347.8246 125.6574  1.00270503  6135
O3B MPOWER F7           
1 62362U 24244A   26059.53491027 -.00000028  00000+0  00000+0 0  9997
2 62362   0.0693   5.4961 0006142 333.0934  21.3774  5.00115153 21099
O3B MPOWER F8           
1 62363U 24244B   26061.70069461 -.00000029  00000+0  00000+0 0  9994
2 62363   0.0528 316.7878 0006681  16.2103  26.9598  5.00115742 15539
